IRIDIUM 171             
1 43929U 19002H   23365.05443367  .00000335  00000+0  11241-3 0  9992
2 43929  86.3977   9.5476 0002091  90.6445 269.4991 14.34214768260086
IRIDIUM 170             
1 43930U 19002J   23365.49611452  .00001243  00000+0  19323-3 0  9992
2 43930  86.6098   9.2089 0002301  90.2739 269.8742 14.72242388267039
IRIDIUM 167             
1 43931U 19002K   23365.11786141  .00000328  00000+0  11002-3 0  9999
2 43931  86.3968   9.3290 0002063  89.1484 270.9948 14.34213501260090
IRIDIUM 181             
1 56726U 23068S   23365.18258318  .00000453  00000+0  12813-3 0  9999
2 56726  86.8575  54.8224 0001820  74.1795 285.9607 14.43576278 32757
IRIDIUM 177             
1 56727U 23068T   23365.15348109  .00001481  00000+0  19165-3 0  9994
2 56727  86.1968  35.6015 0002162  93.3032 266.8436 14.80194961 33372
IRIDIUM 174             
1 56728U 23068U   23364.60724119  .00001538  00000+0  19909-3 0  9992
2 56728  86.1977  35.9509 0002339  98.0228 262.1258 14.80200594 33291
IRIDIUM 178             
1 56729U 23068V   23364.60180550  .00001698  00000+0  22019-3 0  9991
2 56729  86.5772  45.3775 0002153  92.0984 268.0484 14.80198179 33297
IRIDIUM 179             
1 56730U 23068W   23364.79921989  .00001686  00000+0  21868-3 0  9990
2 56730  86.6780  47.2937 0002204  94.4916 265.6558 14.80199428 33325
